SIRION PATHFINDER-2     
1 43759U 18099B   26170.56020073  .00004043  00000+0  22262-3 0  9991
2 43759  97.4247 219.5613 0007156 294.5243  65.5242 15.14564980412989
CORVUS BC4              
1 43767U 18099K   26170.37151364  .00003156  00000+0  18477-3 0  9994
2 43767  97.4063 213.2881 0008069   5.8995 354.2330 15.12510338412738
M2 PATHFINDER           
1 45727U 20037E   26170.57390124  .00001202  00000+0  89866-4 0  9999
2 45727  97.8143   1.8325 0012507 139.3083 220.9080 15.04681666325857
NETSAT-4                
1 46504U 20068U   26170.00438907  .00013363  00000+0  29599-3 0  9994
2 46504  97.8604 178.3912 0003622 329.8172  30.2865 15.43912955316054
NETSAT-3                
1 46505U 20068V   26170.46608847  .00016430  00000+0  37774-3 0  9999
2 46505  97.8655 177.1036 0003888 352.2858   7.8328 15.42747216316037
NETSAT-1                
1 46506U 20068W   26170.48271503  .00010074  00000+0  30211-3 0  9994
2 46506  97.8748 171.4257 0004781  25.4867 334.6610 15.34687263315653
NETSAT-2                
1 46507U 20068X   26170.55970238  .00019174  00000+0  39346-3 0  9992
2 46507  97.8616 178.8939 0003148  19.0109 341.1256 15.46083868316104
GREENCUBE (IO-117)      
1 53109U 22080E   26170.36320786 -.00000003  00000+0  00000+0 0  9993
2 53109  70.1443 297.4882 0008913 289.1275  70.8419  6.42583239 92208
SITRO-AIS 5 (KATYS)     
1 57176U 23091L   26170.55609285  .00009596  00000+0  33736-3 0  9990
2 57176  97.5056 234.4783 0012725  96.2389 264.0301 15.29501818164709
SITRO-AIS 6 (CHIRKIN)   
1 57192U 23091AC  26170.54051036  .00007800  00000+0  30576-3 0  9997
2 57192  97.5062 233.5691 0013095  99.2926 260.9794 15.25970680164640
SITRO-AIS 8 (ANOKHIN)   
1 57193U 23091AD  26170.56897241  .00011798  00000+0  38120-3 0  9990
2 57193  97.5051 236.0896 0011740  92.7843 267.4742 15.32190853164813
SITRO-AIS 7 (FARTUSHNIY)
1 57194U 23091AE  26170.47855265  .00007376  00000+0  29202-3 0  9999
2 57194  97.5059 233.3307 0012957 100.4109 259.8590 15.25656984164621
SITRO-AIS 10 (BURDAEV)  
1 57199U 23091AK  26170.46042009  .00016845  00000+0  44216-3 0  9990
2 57199  97.5075 241.0571 0007352  73.4214 286.7838 15.38684557165112
SITRO-AIS 9 (SHCHUKIN)  
1 57201U 23091AM  26170.55260098  .00015900  00000+0  42420-3 0  9990
2 57201  97.5074 240.8798 0007610  73.4458 286.7623 15.38192058165112
SITRO-AIS 12 (SMIRENNIY)
1 57204U 23091AQ  26170.54277199  .00016340  00000+0  43179-3 0  9993
2 57204  97.5087 241.3383 0007116  68.4056 291.7947 15.38485681165138
SITRO-AIS 11 (SHEFFER)  
1 57208U 23091AU  26170.55553599  .00016755  00000+0  43659-3 0  9992
2 57208  97.5085 241.5995 0007008  68.2793 291.9198 15.38912254165150
SITRO-AIS 25            
1 59066U 24039R   26170.58712462  .00002352  00000+0  18536-3 0  9992
2 59066  95.3906 236.7419 0143144 320.2813  38.7998 14.93523393125080
SITRO-AIS 26            
1 59067U 24039S   26170.58882383  .00002111  00000+0  16742-3 0  9993
2 59067  95.3909 236.6401 0143571 320.8816  38.2096 14.93319326125079
SITRO-AIS 27            
1 59068U 24039T   26170.62538175  .00001775  00000+0  14000-3 0  9996
2 59068  95.3914 236.9380 0142606 319.3525  39.7123 14.93739259125105
SITRO-AIS 28            
1 59071U 24039U   26170.60277233  .00002127  00000+0  16708-3 0  9992
2 59071  95.3912 236.9699 0142482 319.2618  39.8019 14.93773534125103
GRBBETA                 
1 60237U 24128C   26170.54292137  .00002191  00000+0  15906-3 0  9990
2 60237  61.9881 208.0011 0040352 135.1213 225.3155 15.06650427106629
OOV-CUBE (TUBSAT-30)    
1 60240U 24128F   26170.58394809  .00001296  00000+0  11023-3 0  9998
2 60240  61.9930 217.2156 0044338 134.2886 226.1856 15.02780984106472
ROBUSTA-3A (MEDITERRAN*)
1 60243U 24128J   26170.38384092  .00004256  00000+0  25697-3 0  9993
2 60243  61.9845 200.4756 0041136 128.3668 232.1135 15.11694010106757
LASARSAT                
1 62391U 24247Q   26170.49548139  .00028780  00000+0  57166-3 0  9991
2 62391  44.9733 249.2437 0007938 344.7299  15.3350 15.46491567 83678
CROCUBE                 
1 62394U 24247T   26170.49048578  .00032668  00000+0  60622-3 0  9997
2 62394  44.9701 246.5654 0007740 349.0739  10.9982 15.48397693 83708
FORESAIL-1 PRIME        
1 66778U 25276DS  26170.43439938  .00004058  00000+0  19871-3 0  9990
2 66778  97.4197 243.6644 0003961  98.6161 261.5522 15.18719306 30740
KNACKSAT-2              
1 67683U 98067XZ  26170.59247606  .00040473  00000+0  49084-3 0  9990
2 67683  51.6307 282.3774 0008934 225.7617 134.2643 15.60167582 20658
